ONEWEB-0589             
1 54655U 22166P   25099.07772164  .00000136  00000+0  29895-3 0  9996
2 54655  87.9291 330.5562 0002568  95.8077 264.3350 13.21826867114669
ONEWEB-0590             
1 54656U 22166Q   25099.10122998  .00005642  00000+0  13628-1 0  9997
2 54656  87.9286 330.5419 0001560  97.7808 262.3503 13.21793341114645
ONEWEB-0591             
1 54657U 22166R   25099.11399882  .00000120  00000+0  25837-3 0  9990
2 54657  87.9292 330.5497 0001880  87.0471 273.0878 13.21825593114674
ONEWEB-0592             
1 54658U 22166S   25098.89006080  .00000010  00000+0 -80353-5 0  9995
2 54658  87.9292 330.5491 0001821  87.7165 272.4177 13.21825529114068
ONEWEB-0593             
1 54659U 22166T   25098.91371789  .00000017  00000+0  85692-5 0  9997
2 54659  87.9293 330.5806 0001957  86.9985 273.1373 13.21825155114174
ONEWEB-0594             
1 54660U 22166U   25098.93263388 -.00000013  00000+0 -63626-4 0  9996
2 54660  87.9296 330.5869 0001804  80.8248 279.3090 13.21823889114192
ONEWEB-0595             
1 54661U 22166V   25099.13764903  .00000136  00000+0  29869-3 0  9993
2 54661  87.9297 330.5264 0001584  81.3167 278.8146 13.21826521114668
ONEWEB-0596             
1 54662U 22166W   25099.11084761  .00000051  00000+0  93037-4 0  9994
2 54662  87.9296 330.5428 0001699  84.7650 275.3677 13.21828702114665
ONEWEB-0597             
1 54663U 22166X   25098.94052334  .00000053  00000+0  97991-4 0  9991
2 54663  87.9300 330.5796 0002048  85.5799 274.5569 13.21823890114172
ONEWEB-0600             
1 54664U 22166Y   25098.92314442 -.00005224  00000+0 -12684-1 0  9991
2 54664  87.9280 330.5989 0002085  76.4095 283.7271 13.21848133114149
ONEWEB-0601             
1 54665U 22166Z   25099.14238527  .00000153  00000+0  33808-3 0  9993
2 54665  87.9299 330.5492 0002101  91.2559 268.8816 13.21825081114829
ONEWEB-0602             
1 54666U 22166AA  25098.88060299  .00000065  00000+0  12688-3 0  9998
2 54666  87.9302 330.6024 0002104  83.2463 276.8911 13.21824909114176
ONEWEB-0603             
1 54667U 22166AB  25099.11242159  .00000147  00000+0  32363-3 0  9996
2 54667  87.9274 330.5187 0002086  86.8148 273.3225 13.21825489114592
ONEWEB-0604             
1 54668U 22166AC  25098.87271644 -.00000005  00000+0 -43810-4 0  9995
2 54668  87.9296 330.5689 0002054  82.5210 277.6157 13.21824469114062
ONEWEB-0605             
1 54669U 22166AD  25098.86641146 -.00000051  00000+0 -15473-3 0  9997
2 54669  87.9294 330.6012 0002160 101.6982 258.4394 13.21823883114136
ONEWEB-0606             
1 54670U 22166AE  25098.88848964  .00000063  00000+0  12205-3 0  9999
2 54670  87.9298 330.6035 0001636  79.4286 280.7032 13.21824686114198
ONEWEB-0607             
1 54671U 22166AF  25098.93106673  .00000087  00000+0  17947-3 0  9994
2 54671  87.9295 330.5628 0001982  84.6354 275.5006 13.21824515114634
ONEWEB-0608             
1 54672U 22166AG  25099.01307148  .00000063  00000+0  12204-3 0  9990
2 54672  87.9278 330.5491 0002181  92.5456 267.5927 13.21824445114654
ONEWEB-0610             
1 54673U 22166AH  25098.91845077  .00000016  00000+0  63225-5 0  9996
2 54673  87.9295 330.5840 0002225  93.1385 267.0003 13.21824764114552
ONEWEB-0611             
1 54674U 22166AJ  25099.13923366  .00000131  00000+0  28462-3 0  9990
2 54674  87.9293 330.5376 0001656  75.1097 285.0220 13.21824968114571
ONEWEB-0612             
1 54675U 22166AK  25098.92475666  .00000071  00000+0  14056-3 0  9999
2 54675  87.9295 330.5589 0001988  86.9497 273.1864 13.21824792114063
ONEWEB-0615             
1 54676U 22166AL  25098.90583395  .00000001  00000+0 -28837-4 0  9994
2 54676  87.9291 330.5886 0002071  82.5676 277.5693 13.21824806114070
ONEWEB-0655             
1 54677U 22166AM  25098.87903551  .00000053  00000+0  97012-4 0  9998
2 54677  87.9300 330.5980 0002088  79.0947 281.0422 13.21824283114065
ONEWEB-0659             
1 54678U 22166AN  25099.12345987  .00000162  00000+0  36140-3 0  9996
2 54678  87.9293 330.5517 0001638  84.1176 276.0144 13.21825596114652
ONEWEB-0685             
1 54679U 22166AP  25098.89794554  .00000069  00000+0  13627-3 0  9999
2 54679  87.9298 330.5902 0002063  82.4332 277.7036 13.21823698114046
ONEWEB-0712             
1 54680U 22166AQ  25098.88938600  .00000100  00000+0  22739-3 0  9992
2 54680  87.9043 315.3419 0002148  72.3521 287.7844 13.16595032114918
ONEWEB-0714             
1 54681U 22166AR  25098.90425462  .00000000  00000+0 -30447-4 0  9999
2 54681  87.9300 330.5799 0002030  83.0638 277.0726 13.21826298114630
ONEWEB-0532             
1 55140U 23004A   25098.90626688  .00000050  00000+0  95810-4 0  9994
2 55140  87.9007  92.3508 0002010 102.1394 257.9962 13.17647382110394
ONEWEB-0533             
1 55141U 23004B   25098.90560728  .00000066  00000+0  14681-3 0  9990
2 55141  87.8831  77.0658 0002147  84.6497 275.4877 13.12444681111094
ONEWEB-0541             
1 55142U 23004C   25098.74848498 -.00000377  00000+0 -11006-2 0  9990
2 55142  87.8792 107.6520 0001973  91.4241 268.7113 13.11418705109001
ONEWEB-0543             
1 55143U 23004D   25098.92305919  .00000114  00000+0  25697-3 0  9996
2 55143  87.9100  61.8519 0002144  75.3968 284.7402 13.18685261112466
ONEWEB-0544             
1 55144U 23004E   25098.91673749  .00000078  00000+0  16531-3 0  9991
2 55144  87.9100  61.8420 0001830  79.8495 280.2843 13.18685448112460
ONEWEB-0560             
1 55145U 23004F   25098.91042450  .00000129  00000+0  29423-3 0  9992
2 55145  87.9106  61.8119 0001807  74.0145 286.1186 13.18686752112470
ONEWEB-0565             
1 55146U 23004G   25098.90409186  .00000098  00000+0  21565-3 0  9999
2 55146  87.9101  61.8768 0001400  88.0617 272.0676 13.18685221112461
ONEWEB-0567             
1 55147U 23004H   25099.12539593  .00000020  00000+0  17160-4 0  9993
2 55147  87.9102  61.7882 0001515  76.9786 283.1515 13.18685280112492
ONEWEB-0569             
1 55148U 23004J   25098.79583592 -.00000271  00000+0 -77624-3 0  9994
2 55148  87.8969  46.5279 0001350  49.4235 310.7012 13.13470809113152
ONEWEB-0570             
1 55149U 23004K   25099.26450394  .00000020  00000+0  19009-4 0  9995
2 55149  87.9103  61.7632 0001781 103.7539 256.3792 13.18684930112500
ONEWEB-0571             
1 55150U 23004L   25099.25816898  .00000114  00000+0  25560-3 0  9993
2 55150  87.9103  61.7730 0000874  85.1949 274.9283 13.18688325112515
ONEWEB-0572             
1 55151U 23004M   25099.24037177  .00000100  00000+0  22502-3 0  9996
2 55151  87.9006  92.2912 0001766  93.9787 266.1546 13.17652084110332
ONEWEB-0573             
1 55152U 23004N   25099.17597724  .00000034  00000+0  53028-4 0  9992
2 55152  87.9099  61.7963 0001098 100.7801 259.3454 13.18688118112493
ONEWEB-0588             
1 55153U 23004P   25098.63851957  .00000087  00000+0  18819-3 0  9990
2 55153  87.9102  61.8850 0001734  97.7783 262.3546 13.18685290112423
ONEWEB-0598             
1 55154U 23004Q   25098.72644579 -.00000115  00000+0 -35970-3 0  9992
2 55154  87.8789 107.6939 0001304  83.5291 276.5986 13.11416724108956
ONEWEB-0599             
1 55155U 23004R   25098.89782030  .00000062  00000+0  12565-3 0  9990
2 55155  87.9012  92.3605 0001852  82.0646 278.0696 13.17646564110291
ONEWEB-0614             
1 55156U 23004S   25099.25544487  .00000130  00000+0  33077-3 0  9991
2 55156  87.8790 107.5964 0002170  99.4772 260.6601 13.11415631108986
ONEWEB-0616             
1 55157U 23004T   25099.24374481 -.00000191  00000+0 -52483-3 0  9997
2 55157  87.9008  92.2860 0002534  63.5691 296.5701 13.17648091110550
ONEWEB-0617             
1 55158U 23004U   25098.78580621  .00000524  00000+0  14417-2 0  9993
2 55158  87.8787 107.6736 0001942 103.0797 257.0548 13.11416298108921
ONEWEB-0618             
1 55159U 23004V   25099.20853515  .00000566  00000+0  18388-3 0  9995
2 55159  86.9122 347.9780 0015175  49.4787 310.7730 14.37081240117629
ONEWEB-0619             
1 55160U 23004W   25099.27582270  .00000121  00000+0  27842-3 0  9993
2 55160  87.9009  92.2572 0002517  90.6987 269.4432 13.17650830110458
ONEWEB-0620             
1 55161U 23004X   25098.78071219  .00000564  00000+0  15564-2 0  9993
2 55161  87.8791 107.6927 0001682 103.5052 256.6263 13.11417745108895
ONEWEB-0621             
1 55162U 23004Y   25098.73154616 -.00000215  00000+0 -64306-3 0  9996
2 55162  87.8793 107.6619 0002046  93.8405 266.2957 13.11413533108869
ONEWEB-0622             
1 55163U 23004Z   25098.73661623 -.00000481  00000+0 -13929-2 0  9997
2 55163  87.8790 107.6826 0002124 114.1338 246.0012 13.11416777108856
ONEWEB-0623             
1 55164U 23004AA  25099.27074231  .00000092  00000+0  20435-3 0  9998
2 55164  87.9008  92.3132 0002445 105.9424 254.1977 13.17652106110442
ONEWEB-0624             
1 55165U 23004AB  25099.17661038 -.00000024  00000+0 -10267-3 0  9994
2 55165  87.8833  77.0205 0002017  89.9458 270.1902 13.12442057111121
ONEWEB-0625             
1 55166U 23004AC  25098.88093844  .00000008  00000+0 -11774-4 0  9992
2 55166  87.9008  92.3891 0002043  83.7036 276.4328 13.17651526110387
ONEWEB-0626             
1 55167U 23004AD  25098.71893784 -.00000621  00000+0 -16323-2 0  9991
2 55167  87.9004  92.4199 0001395  79.8556 280.2733 13.17649780110368
ONEWEB-0627             
1 55168U 23004AE  25098.70713245  .00000063  00000+0  12967-3 0  9993
2 55168  87.9006  92.4247 0002154 105.0434 255.0936 13.17651502110366
ONEWEB-0628             
1 55169U 23004AF  25099.23339899  .00000443  00000+0  11951-2 0  9995
2 55169  87.8830  76.9874 0002438 100.3668 259.7735 13.12442098111111
ONEWEB-0629             
1 55170U 23004AG  25098.91048595  .00000052  00000+0  99930-4 0  9992
2 55170  87.9029  92.3580 0002360  88.5454 271.5948 13.17647538110392
ONEWEB-0631             
1 55171U 23004AH  25099.16333201  .00000016  00000+0  68011-5 0  9999
2 55171  87.9113  61.7017 0001483  95.0380 265.0921 13.18684832112477
